[{"OBJECT_NAME":"STARLINK-32951","OBJECT_ID":"2025-075Q","EPOCH":"2026-03-09T13:03:04.114368","MEAN_MOTION":15.27594769,"ECCENTRICITY":9.892e-5,"INCLINATION":43.0033,"RA_OF_ASC_NODE":271.557,"ARG_OF_PERICENTER":214.87,"MEAN_ANOMALY":145.2087,"EPHEMERIS_TYPE":0,"CLASSIFICATION_TYPE":"U","NORAD_CAT_ID":63562,"ELEMENT_SET_NO":999,"REV_AT_EPOCH":5191,"BSTAR":0.001021077,"MEAN_MOTION_DOT":0.00027955,"MEAN_MOTION_DDOT":0},{"OBJECT_NAME":"OBJECT B","OBJECT_ID":"2025-313B","EPOCH":"2026-03-09T22:01:30.454176","MEAN_MOTION":14.73613198,"ECCENTRICITY":0.02934893,"INCLINATION":97.5206,"RA_OF_ASC_NODE":141.38,"ARG_OF_PERICENTER":298.1139,"MEAN_ANOMALY":59.0692,"EPHEMERIS_TYPE":0,"CLASSIFICATION_TYPE":"U","NORAD_CAT_ID":67249,"ELEMENT_SET_NO":999,"REV_AT_EPOCH":1051,"BSTAR":0.00024043091,"MEAN_MOTION_DOT":3.075e-5,"MEAN_MOTION_DDOT":0}]
